CCSDS_OMM_VERS = 2.0
CREATION_DATE  = 
ORIGINATOR     = 

OBJECT_NAME    = YOTSUBA-KULOVER
OBJECT_ID      = 1998-067XN
CENTER_NAME    = EARTH
REF_FRAME      = TEME
TIME_SYSTEM    = UTC
MEAN_ELEMENT_THEORY = SGP/SGP4

EPOCH          = 2026-02-21T07:04:32.945664
MEAN_MOTION    = 15.74362167
ECCENTRICITY   = .00055571
INCLINATION    = 51.6233
RA_OF_ASC_NODE = 141.9079
ARG_OF_PERICENTER = 341.7546
MEAN_ANOMALY   = 18.3253

EPHEMERIS_TYPE = 0
CLASSIFICATION_TYPE = U
NORAD_CAT_ID   = 65941
ELEMENT_SET_NO = 999
REV_AT_EPOCH   = 2091
BSTAR          = .10012844E-2
MEAN_MOTION_DOT = .150125E-2
MEAN_MOTION_DDOT = 0

CCSDS_OMM_VERS = 2.0
CREATION_DATE  = 
ORIGINATOR     = 

OBJECT_NAME    = BOTAN
OBJECT_ID      = 1998-067XP
CENTER_NAME    = EARTH
REF_FRAME      = TEME
TIME_SYSTEM    = UTC
MEAN_ELEMENT_THEORY = SGP/SGP4

EPOCH          = 2026-02-21T06:52:49.855296
MEAN_MOTION    = 15.95780667
ECCENTRICITY   = .00098703
INCLINATION    = 51.6141
RA_OF_ASC_NODE = 136.5127
ARG_OF_PERICENTER = 359.4528
MEAN_ANOMALY   = 0.6467

EPHEMERIS_TYPE = 0
CLASSIFICATION_TYPE = U
NORAD_CAT_ID   = 65942
ELEMENT_SET_NO = 999
REV_AT_EPOCH   = 2098
BSTAR          = .15339943E-2
MEAN_MOTION_DOT = .637479E-2
MEAN_MOTION_DDOT = .18189646E-3

CCSDS_OMM_VERS = 2.0
CREATION_DATE  = 
ORIGINATOR     = 

OBJECT_NAME    = E-KAGAKU-1
OBJECT_ID      = 1998-067XQ
CENTER_NAME    = EARTH
REF_FRAME      = TEME
TIME_SYSTEM    = UTC
MEAN_ELEMENT_THEORY = SGP/SGP4

EPOCH          = 2026-02-21T05:35:52.149408
MEAN_MOTION    = 15.74172048
ECCENTRICITY   = .00056391
INCLINATION    = 51.6261
RA_OF_ASC_NODE = 142.2610
ARG_OF_PERICENTER = 351.4881
MEAN_ANOMALY   = 8.6021

EPHEMERIS_TYPE = 0
CLASSIFICATION_TYPE = U
NORAD_CAT_ID   = 65943
ELEMENT_SET_NO = 999
REV_AT_EPOCH   = 2090
BSTAR          = .10173273E-2
MEAN_MOTION_DOT = .151313E-2
MEAN_MOTION_DDOT = 0

CCSDS_OMM_VERS = 2.0
CREATION_DATE  = 
ORIGINATOR     = 

OBJECT_NAME    = HRC MONOBLOCK CAMERA
OBJECT_ID      = 1998-067XR
CENTER_NAME    = EARTH
REF_FRAME      = TEME
TIME_SYSTEM    = UTC
MEAN_ELEMENT_THEORY = SGP/SGP4

EPOCH          = 2026-02-20T06:56:43.908576
MEAN_MOTION    = 15.60302557
ECCENTRICITY   = .0002498
INCLINATION    = 51.6293
RA_OF_ASC_NODE = 153.2198
ARG_OF_PERICENTER = 26.6751
MEAN_ANOMALY   = 333.4371

EPHEMERIS_TYPE = 0
CLASSIFICATION_TYPE = U
NORAD_CAT_ID   = 66052
ELEMENT_SET_NO = 999
REV_AT_EPOCH   = 1967
BSTAR          = .4507E-3
MEAN_MOTION_DOT = .37241E-3
MEAN_MOTION_DDOT = 0

CCSDS_OMM_VERS = 2.0
CREATION_DATE  = 
ORIGINATOR     = 

OBJECT_NAME    = HTV-X1
OBJECT_ID      = 2025-241A
CENTER_NAME    = EARTH
REF_FRAME      = TEME
TIME_SYSTEM    = UTC
MEAN_ELEMENT_THEORY = SGP/SGP4

EPOCH          = 2026-02-21T05:58:25.424832
MEAN_MOTION    = 15.48178501
ECCENTRICITY   = .00085229
INCLINATION    = 51.6322
RA_OF_ASC_NODE = 153.6219
ARG_OF_PERICENTER = 117.8535
MEAN_ANOMALY   = 242.3318

EPHEMERIS_TYPE = 0
CLASSIFICATION_TYPE = U
NORAD_CAT_ID   = 66174
ELEMENT_SET_NO = 999
REV_AT_EPOCH   = 51
BSTAR          = .21781902E-3
MEAN_MOTION_DOT = .11241E-3
MEAN_MOTION_DDOT = 0

CCSDS_OMM_VERS = 2.0
CREATION_DATE  = 
ORIGINATOR     = 

OBJECT_NAME    = SZ-21 MODULE
OBJECT_ID      = 2025-246C
CENTER_NAME    = EARTH
REF_FRAME      = TEME
TIME_SYSTEM    = UTC
MEAN_ELEMENT_THEORY = SGP/SGP4

EPOCH          = 2026-02-20T01:07:01.388640
MEAN_MOTION    = 15.67142085
ECCENTRICITY   = .00017542
INCLINATION    = 41.4757
RA_OF_ASC_NODE = 311.8512
ARG_OF_PERICENTER = 295.1642
MEAN_ANOMALY   = 64.9017

EPHEMERIS_TYPE = 0
CLASSIFICATION_TYPE = U
NORAD_CAT_ID   = 66515
ELEMENT_SET_NO = 999
REV_AT_EPOCH   = 1530
BSTAR          = .28694459E-3
MEAN_MOTION_DOT = .31392E-3
MEAN_MOTION_DDOT = 0

CCSDS_OMM_VERS = 2.0
CREATION_DATE  = 
ORIGINATOR     = 

OBJECT_NAME    = SHENZHOU-22
OBJECT_ID      = 2025-272A
CENTER_NAME    = EARTH
REF_FRAME      = TEME
TIME_SYSTEM    = UTC
MEAN_ELEMENT_THEORY = SGP/SGP4

EPOCH          = 2026-02-21T03:18:05.378400
MEAN_MOTION    = 15.59957331
ECCENTRICITY   = .00048286
INCLINATION    = 41.4672
RA_OF_ASC_NODE = 308.8199
ARG_OF_PERICENTER = 160.2979
MEAN_ANOMALY   = 199.8047

EPHEMERIS_TYPE = 0
CLASSIFICATION_TYPE = U
NORAD_CAT_ID   = 66645
ELEMENT_SET_NO = 999
REV_AT_EPOCH   = 26764
BSTAR          = .29956101E-3
MEAN_MOTION_DOT = .24626E-3
MEAN_MOTION_DDOT = 0

CCSDS_OMM_VERS = 2.0
CREATION_DATE  = 
ORIGINATOR     = 

OBJECT_NAME    = SOYUZ-MS 28
OBJECT_ID      = 2025-275A
CENTER_NAME    = EARTH
REF_FRAME      = TEME
TIME_SYSTEM    = UTC
MEAN_ELEMENT_THEORY = SGP/SGP4

EPOCH          = 2026-02-21T05:58:25.424832
MEAN_MOTION    = 15.48178501
ECCENTRICITY   = .00085229
INCLINATION    = 51.6322
RA_OF_ASC_NODE = 153.6219
ARG_OF_PERICENTER = 117.8535
MEAN_ANOMALY   = 242.3318

EPHEMERIS_TYPE = 0
CLASSIFICATION_TYPE = U
NORAD_CAT_ID   = 66664
ELEMENT_SET_NO = 999
REV_AT_EPOCH   = 128
BSTAR          = .21781902E-3
MEAN_MOTION_DOT = .11241E-3
MEAN_MOTION_DDOT = 0

CCSDS_OMM_VERS = 2.0
CREATION_DATE  = 
ORIGINATOR     = 

OBJECT_NAME    = DUPLEX
OBJECT_ID      = 1998-067XS
CENTER_NAME    = EARTH
REF_FRAME      = TEME
TIME_SYSTEM    = UTC
MEAN_ELEMENT_THEORY = SGP/SGP4

EPOCH          = 2026-02-19T20:31:31.993824
MEAN_MOTION    = 15.54966738
ECCENTRICITY   = .00015348
INCLINATION    = 51.6297
RA_OF_ASC_NODE = 158.5697
ARG_OF_PERICENTER = 73.8689
MEAN_ANOMALY   = 286.2471

EPHEMERIS_TYPE = 0
CLASSIFICATION_TYPE = U
NORAD_CAT_ID   = 66906
ELEMENT_SET_NO = 999
REV_AT_EPOCH   = 1235
BSTAR          = .46566264E-3
MEAN_MOTION_DOT = .31428E-3
MEAN_MOTION_DDOT = 0

CCSDS_OMM_VERS = 2.0
CREATION_DATE  = 
ORIGINATOR     = 

OBJECT_NAME    = ISS OBJECT XT
OBJECT_ID      = 1998-067XT
CENTER_NAME    = EARTH
REF_FRAME      = TEME
TIME_SYSTEM    = UTC
MEAN_ELEMENT_THEORY = SGP/SGP4

EPOCH          = 2026-02-21T06:04:37.218720
MEAN_MOTION    = 15.64469502
ECCENTRICITY   = .00034057
INCLINATION    = 51.6267
RA_OF_ASC_NODE = 149.1509
ARG_OF_PERICENTER = 350.5744
MEAN_ANOMALY   = 9.5187

EPHEMERIS_TYPE = 0
CLASSIFICATION_TYPE = U
NORAD_CAT_ID   = 66907
ELEMENT_SET_NO = 999
REV_AT_EPOCH   = 1260
BSTAR          = .12666289E-2
MEAN_MOTION_DOT = .125657E-2
MEAN_MOTION_DDOT = 0

CCSDS_OMM_VERS = 2.0
CREATION_DATE  = 
ORIGINATOR     = 

OBJECT_NAME    = ISS OBJECT XU
OBJECT_ID      = 1998-067XU
CENTER_NAME    = EARTH
REF_FRAME      = TEME
TIME_SYSTEM    = UTC
MEAN_ELEMENT_THEORY = SGP/SGP4

EPOCH          = 2026-02-20T07:03:31.510944
MEAN_MOTION    = 15.64310971
ECCENTRICITY   = .0003151
INCLINATION    = 51.6268
RA_OF_ASC_NODE = 153.9936
ARG_OF_PERICENTER = 349.4129
MEAN_ANOMALY   = 10.6799

EPHEMERIS_TYPE = 0
CLASSIFICATION_TYPE = U
NORAD_CAT_ID   = 66908
ELEMENT_SET_NO = 999
REV_AT_EPOCH   = 1245
BSTAR          = .9512E-3
MEAN_MOTION_DOT = .93259E-3
MEAN_MOTION_DDOT = 0

CCSDS_OMM_VERS = 2.0
CREATION_DATE  = 
ORIGINATOR     = 

OBJECT_NAME    = SILVERSAT
OBJECT_ID      = 1998-067XV
CENTER_NAME    = EARTH
REF_FRAME      = TEME
TIME_SYSTEM    = UTC
MEAN_ELEMENT_THEORY = SGP/SGP4

EPOCH          = 2026-02-21T06:40:00.814944
MEAN_MOTION    = 15.66407869
ECCENTRICITY   = .00042591
INCLINATION    = 51.6262
RA_OF_ASC_NODE = 148.5627
ARG_OF_PERICENTER = 348.1045
MEAN_ANOMALY   = 11.9850

EPHEMERIS_TYPE = 0
CLASSIFICATION_TYPE = U
NORAD_CAT_ID   = 66909
ELEMENT_SET_NO = 999
REV_AT_EPOCH   = 1261
BSTAR          = .13901378E-2
MEAN_MOTION_DOT = .149558E-2
MEAN_MOTION_DDOT = 0

